CTC1_L_00352001-01
1 85731U 25119BX  26037.47805556  .00000000  00000+0  00000-0 0  9999
2 85731  60.0000   0.0000 0000000   0.0000   0.0000 13.72670174    11
CTC1_L_00352001-02
1 85732U 23035DL  26037.47805556  .00000000  00000+0  00000-0 0  9995
2 85732  60.0000   0.0000 0000000   0.0000  90.0000 13.72670174    11
CTC1_L_00352001-03
1 85733U 23169HQ  26037.47805556  .00000000  00000+0  00000-0 0  9994
2 85733  60.0000   0.0000 0000000   0.0000 180.0000 13.72670174    12
CTC1_L_00352001-04
1 85734U 24697OR  26037.47805556  .00000000  00000+0  00000-0 0  9992
2 85734  60.0000   0.0000 0000000   0.0000 270.0000 13.72670174    13
CTC1_L_00352002-01
1 85735U 24780DL  26037.47805556  .00000000  00000+0  00000-0 0  9996
2 85735  60.0000  12.0000 0000000   0.0000  12.0000 13.72670174    11
CTC1_L_00352002-02
1 85736U 23115NQ  26037.47805556  .00000000  00000+0  00000-0 0  9998
2 85736  60.0000  12.0000 0000000   0.0000 102.0000 13.72670174    12
CTC1_L_00352002-03
1 85737U 25965PK  26037.47805556  .00000000  00000+0  00000-0 0  9994
2 85737  60.0000  12.0000 0000000   0.0000 192.0000 13.72670174    12
CTC1_L_00352002-04
1 85738U 24008EG  26037.47805556  .00000000  00000+0  00000-0 0  9992
2 85738  60.0000  12.0000 0000000   0.0000 282.0000 13.72670174    13
CTC1_L_00352003-01
1 85739U 23678FQ  26037.47805556  .00000000  00000+0  00000-0 0  9995
2 85739  60.0000  24.0000 0000000   0.0000  24.0000 13.72670174    11
CTC1_L_00352003-02
1 85740U 24712PH  26037.47805556  .00000000  00000+0  00000-0 0  9997
2 85740  60.0000  24.0000 0000000   0.0000 114.0000 13.72670174    13
CTC1_L_00352003-03
1 85741U 22829JM  26037.47805556  .00000000  00000+0  00000-0 0  9995
2 85741  60.0000  24.0000 0000000   0.0000 204.0000 13.72670174    14
CTC1_L_00352003-04
1 85742U 23844KC  26037.47805556  .00000000  00000+0  00000-0 0  9994
2 85742  60.0000  24.0000 0000000   0.0000 294.0000 13.72670174    14
CTC1_L_00352004-01
1 85743U 23629OQ  26037.47805556  .00000000  00000+0  00000-0 0  9996
2 85743  60.0000  36.0000 0000000   0.0000  36.0000 13.72670174    12
CTC1_L_00352004-02
1 85744U 24381ET  26037.47805556  .00000000  00000+0  00000-0 0  9993
2 85744  60.0000  36.0000 0000000   0.0000 126.0000 13.72670174    13
CTC1_L_00352004-03
1 85745U 24381C   26037.47805556  .00000000  00000+0  00000-0 0  9994
2 85745  60.0000  36.0000 0000000   0.0000 216.0000 13.72670174    14
CTC1_L_00352004-04
1 85746U 24549ZO  26037.47805556  .00000000  00000+0  00000-0 0  9991
2 85746  60.0000  36.0000 0000000   0.0000 306.0000 13.72670174    15
CTC1_L_00352005-01
1 85747U 23204ES  26037.47805556  .00000000  00000+0  00000-0 0  9999
2 85747  60.0000  48.0000 0000000   0.0000  48.0000 13.72670174    12
CTC1_L_00352005-02
1 85748U 22248PP  26037.47805556  .00000000  00000+0  00000-0 0  9997
2 85748  60.0000  48.0000 0000000   0.0000 138.0000 13.72670174    13
CTC1_L_00352005-03
1 85749U 26995HA  26037.47805556  .00000000  00000+0  00000-0 0  9991
2 85749  60.0000  48.0000 0000000   0.0000 228.0000 13.72670174    14
CTC1_L_00352005-04
1 85750U 26440UU  26037.47805556  .00000000  00000+0  00000-0 0  9998
2 85750  60.0000  48.0000 0000000   0.0000 318.0000 13.72670174    16
CTC1_L_00352006-01
1 85751U 23626G   26037.47805556  .00000000  00000+0  00000-0 0  9992
2 85751  60.0000  60.0000 0000000   0.0000  60.0000 13.72670174    15
CTC1_L_00352006-02
1 85752U 22127AZ  26037.47805556  .00000000  00000+0  00000-0 0  9998
2 85752  60.0000  60.0000 0000000   0.0000 150.0000 13.72670174    16
CTC1_L_00352006-03
1 85753U 26763DF  26037.47805556  .00000000  00000+0  00000-0 0  9999
2 85753  60.0000  60.0000 0000000   0.0000 240.0000 13.72670174    17
CTC1_L_00352006-04
1 85754U 24782XH  26037.47805556  .00000000  00000+0  00000-0 0  9999
2 85754  60.0000  60.0000 0000000   0.0000 330.0000 13.72670174    18
CTC1_L_00352007-01
1 85755U 22676CL  26037.47805556  .00000000  00000+0  00000-0 0  9990
2 85755  60.0000  72.0000 0000000   0.0000  72.0000 13.72670174    15
CTC1_L_00352007-02
1 85756U 23419QN  26037.47805556  .00000000  00000+0  00000-0 0  9997
2 85756  60.0000  72.0000 0000000   0.0000 162.0000 13.72670174    16
CTC1_L_00352007-03
1 85757U 24396PX  26037.47805556  .00000000  00000+0  00000-0 0  9993
2 85757  60.0000  72.0000 0000000   0.0000 252.0000 13.72670174    17
CTC1_L_00352007-04
1 85758U 24916J   26037.47805556  .00000000  00000+0  00000-0 0  9992
2 85758  60.0000  72.0000 0000000   0.0000 342.0000 13.72670174    18
CTC1_L_00352008-01
1 85759U 26480GA  26037.47805556  .00000000  00000+0  00000-0 0  9991
2 85759  60.0000  84.0000 0000000   0.0000  84.0000 13.72670174    15
CTC1_L_00352008-02
1 85760U 25357WO  26037.47805556  .00000000  00000+0  00000-0 0  9995
2 85760  60.0000  84.0000 0000000   0.0000 174.0000 13.72670174    17
CTC1_L_00352008-03
1 85761U 24513QT  26037.47805556  .00000000  00000+0  00000-0 0  9999
2 85761  60.0000  84.0000 0000000   0.0000 264.0000 13.72670174    18
CTC1_L_00352008-04
1 85762U 24258ZU  26037.47805556  .00000000  00000+0  00000-0 0  9996
2 85762  60.0000  84.0000 0000000   0.0000 354.0000 13.72670174    19
CTC1_L_00352009-01
1 85763U 25377BG  26037.47805556  .00000000  00000+0  00000-0 0  9990
2 85763  60.0000  96.0000 0000000   0.0000  96.0000 13.72670174    16
CTC1_L_00352009-02
1 85764U 24890WD  26037.47805556  .00000000  00000+0  00000-0 0  9990
2 85764  60.0000  96.0000 0000000   0.0000 186.0000 13.72670174    17
CTC1_L_00352009-03
1 85765U 26287KN  26037.47805556  .00000000  00000+0  00000-0 0  9993
2 85765  60.0000  96.0000 0000000   0.0000 276.0000 13.72670174    18
CTC1_L_00352009-04
1 85766U 25708MQ  26037.47805556  .00000000  00000+0  00000-0 0  9991
2 85766  60.0000  96.0000 0000000   0.0000   6.0000 13.72670174    10
CTC1_L_00352010-01
1 85767U 24187AM  26037.47805556  .00000000  00000+0  00000-0 0  9992
2 85767  60.0000 108.0000 0000000   0.0000 108.0000 13.72670174    18
CTC1_L_00352010-02
1 85768U 22695KQ  26037.47805556  .00000000  00000+0  00000-0 0  9995
2 85768  60.0000 108.0000 0000000   0.0000 198.0000 13.72670174    18
CTC1_L_00352010-03
1 85769U 24088IE  26037.47805556  .00000000  00000+0  00000-0 0  9994
2 85769  60.0000 108.0000 0000000   0.0000 288.0000 13.72670174    19
CTC1_L_00352010-04
1 85770U 25864BP  26037.47805556  .00000000  00000+0  00000-0 0  9999
2 85770  60.0000 108.0000 0000000   0.0000  18.0000 13.72670174    12
CTC1_L_00352011-01
1 85771U 22685KU  26037.47805556  .00000000  00000+0  00000-0 0  9998
2 85771  60.0000 120.0000 0000000   0.0000 120.0000 13.72670174    11
CTC1_L_00352011-02
1 85772U 23756AT  26037.47805556  .00000000  00000+0  00000-0 0  9999
2 85772  60.0000 120.0000 0000000   0.0000 210.0000 13.72670174    12
CTC1_L_00352011-03
1 85773U 22594GM  26037.47805556  .00000000  00000+0  00000-0 0  9999
2 85773  60.0000 120.0000 0000000   0.0000 300.0000 13.72670174    13
CTC1_L_00352011-04
1 85774U 22063SF  26037.47805556  .00000000  00000+0  00000-0 0  9991
2 85774  60.0000 120.0000 0000000   0.0000  30.0000 13.72670174    14
CTC1_L_00352012-01
1 85775U 22960CF  26037.47805556  .00000000  00000+0  00000-0 0  9998
2 85775  60.0000 132.0000 0000000   0.0000 132.0000 13.72670174    11
CTC1_L_00352012-02
1 85776U 22612OB  26037.47805556  .00000000  00000+0  00000-0 0  9993
2 85776  60.0000 132.0000 0000000   0.0000 222.0000 13.72670174    12
CTC1_L_00352012-03
1 85777U 25646YK  26037.47805556  .00000000  00000+0  00000-0 0  9994
2 85777  60.0000 132.0000 0000000   0.0000 312.0000 13.72670174    13
CTC1_L_00352012-04
1 85778U 22127CS  26037.47805556  .00000000  00000+0  00000-0 0  9996
2 85778  60.0000 132.0000 0000000   0.0000  42.0000 13.72670174    14
CTC1_L_00352013-01
1 85779U 26219HQ  26037.47805556  .00000000  00000+0  00000-0 0  9993
2 85779  60.0000 144.0000 0000000   0.0000 144.0000 13.72670174    11
CTC1_L_00352013-02
1 85780U 22680ND  26037.47805556  .00000000  00000+0  00000-0 0  9993
2 85780  60.0000 144.0000 0000000   0.0000 234.0000 13.72670174    13
CTC1_L_00352013-03
1 85781U 22038BC  26037.47805556  .00000000  00000+0  00000-0 0  9991
2 85781  60.0000 144.0000 0000000   0.0000 324.0000 13.72670174    14
CTC1_L_00352013-04
1 85782U 25613FG  26037.47805556  .00000000  00000+0  00000-0 0  9994
2 85782  60.0000 144.0000 0000000   0.0000  54.0000 13.72670174    15
CTC1_L_00352014-01
1 85783U 22855DV  26037.47805556  .00000000  00000+0  00000-0 0  9990
2 85783  60.0000 156.0000 0000000   0.0000 156.0000 13.72670174    12
CTC1_L_00352014-02
1 85784U 24332AF  26037.47805556  .00000000  00000+0  00000-0 0  9993
2 85784  60.0000 156.0000 0000000   0.0000 246.0000 13.72670174    13
CTC1_L_00352014-03
1 85785U 24560KV  26037.47805556  .00000000  00000+0  00000-0 0  9997
2 85785  60.0000 156.0000 0000000   0.0000 336.0000 13.72670174    14
CTC1_L_00352014-04
1 85786U 23488LB  26037.47805556  .00000000  00000+0  00000-0 0  9996
2 85786  60.0000 156.0000 0000000   0.0000  66.0000 13.72670174    15
CTC1_L_00352015-01
1 85787U 22515EP  26037.47805556  .00000000  00000+0  00000-0 0  9997
2 85787  60.0000 168.0000 0000000   0.0000 168.0000 13.72670174    12
CTC1_L_00352015-02
1 85788U 25938QG  26037.47805556  .00000000  00000+0  00000-0 0  9990
2 85788  60.0000 168.0000 0000000   0.0000 258.0000 13.72670174    13
CTC1_L_00352015-03
1 85789U 23369O   26037.47805556  .00000000  00000+0  00000-0 0  9997
2 85789  60.0000 168.0000 0000000   0.0000 348.0000 13.72670174    14
CTC1_L_00352015-04
1 85790U 25541EO  26037.47805556  .00000000  00000+0  00000-0 0  9993
2 85790  60.0000 168.0000 0000000   0.0000  78.0000 13.72670174    16
CTC1_L_00352016-01
1 85791U 22746BL  26037.47805556  .00000000  00000+0  00000-0 0  9998
2 85791  60.0000 180.0000 0000000   0.0000 180.0000 13.72670174    15
CTC1_L_00352016-02
1 85792U 25506AI  26037.47805556  .00000000  00000+0  00000-0 0  9996
2 85792  60.0000 180.0000 0000000   0.0000 270.0000 13.72670174    16
